OBJECT_NAME,OBJECT_ID,EPOCH,MEAN_MOTION,ECCENTRICITY,INCLINATION,RA_OF_ASC_NODE,ARG_OF_PERICENTER,MEAN_ANOMALY,EPHEMERIS_TYPE,CLASSIFICATION_TYPE,NORAD_CAT_ID,ELEMENT_SET_NO,REV_AT_EPOCH,BSTAR,MEAN_MOTION_DOT,MEAN_MOTION_DDOT
SCD 1,1993-009B,2026-06-07T00:56:28.277088,14.46115416,.0042073,24.9696,270.2363,30.8724,129.6728,0,U,22490,999,75964,.59464E-4,.403E-5,0
TECHSAT 1B (GO-32),1998-043D,2026-06-06T14:21:22.435776,14.24426350,.00004642,99.0065,150.0898,193.9791,166.1374,0,U,25397,999,44982,.49896193E-4,.69E-6,0
SCD 2,1998-060A,2026-06-07T05:12:08.577216,14.45521991,.0016796,24.9937,133.6452,18.7128,4.5179,0,U,25504,999,45888,.67622E-4,.424E-5,0
DLR-TUBSAT,1999-029B,2026-06-07T05:39:02.954304,14.52424341,.0014666,98.6693,153.4120,24.9874,335.2027,0,U,25757,999,43180,.42973E-4,.127E-5,0
TERRA,1999-068A,2026-06-07T10:05:19.199904,14.61095687,.0000899,97.9460,208.3535,238.3915,132.2520,0,U,25994,999,40818,.10279E-3,.461E-5,0
MAROC-TUBSAT,2001-056D,2026-06-07T05:48:31.806720,13.70261967,.0020024,99.8080,334.9145,166.2655,14.3493,0,U,27004,999,22482,.23436E-4,-.26E-6,0
AQUA,2002-022A,2026-06-07T11:34:14.492352,14.62144003,.0001487,98.4272,127.5715,54.6851,51.3936,0,U,27424,999,28185,.19988E-3,.956E-5,0
SHIYAN-1 (SY-1),2004-012A,2026-06-07T11:05:13.007904,15.33512396,.0006414,97.8686,235.9005,63.9655,296.2246,0,U,28220,999,20960,.4229E-3,.13631E-3,0
AURA,2004-026A,2026-06-07T11:14:41.608032,14.61315056,.0001342,98.3413,114.8418,71.1305,289.0041,0,U,28376,999,16479,.20589E-3,.969E-5,0
IRS-P5 (CARTOSAT-1),2005-017A,2026-06-07T08:20:22.429248,14.91024329,.0002643,97.5311,181.8585,92.1036,268.0485,0,U,28649,999,14235,.17891E-3,.1717E-4,0
SINAH 1,2005-043D,2026-06-07T10:02:21.958080,14.64151400,.0013369,98.2848,292.6836,310.2187,49.7845,0,U,28893,999,9909,.83354E-4,.389E-5,0
RESURS-DK 1,2006-021A,2026-06-07T07:37:59.488896,15.13173709,.0006372,69.9339,5.0995,299.9640,60.0893,0,U,29228,999,10108,.16303E-3,.2792E-4,0
ARIRANG-2 (KOMPSAT-2),2006-031A,2026-06-07T12:40:18.249600,14.64654908,.0015825,97.8308,343.4419,102.2589,342.0029,0,U,29268,999,6006,.11439E-3,.564E-5,0
LAPAN-TUBSAT,2007-001A,2026-06-07T13:23:00.191904,14.85941550,.0011141,98.1345,157.5648,212.1487,147.9049,0,U,29709,999,4972,.1021E-3,.834E-5,0
HAIYANG-1B,2007-010A,2026-06-07T05:11:13.733952,14.31024451,.0012464,98.3490,140.4482,227.6242,132.3887,0,U,31113,999,99920,.59782E-4,.116E-5,0
COSMO-SKYMED 1,2007-023A,2026-06-07T12:14:51.109728,14.97057993,.0001229,97.8859,350.2858,80.2846,279.8514,0,U,31598,999,2834,.22554E-3,.2539E-4,0
TERRASAR-X,2007-026A,2026-06-06T10:55:28.835904,15.19152015,.0001807,97.4446,165.3145,76.8069,283.3367,0,U,31698,999,5159,.42342E-4,.822E-5,0
WORLDVIEW-1 (WV-1),2007-041A,2026-06-07T10:40:15.276864,15.24158646,.0003119,97.3861,278.3301,47.5764,312.5737,0,U,32060,999,4139,.2526E-3,.6077E-4,0
YAOGAN-3,2007-055A,2026-06-07T12:41:48.644736,14.90746228,.0001936,97.8159,188.5028,86.3129,273.8310,0,U,32289,999,443,.23426E-3,.2245E-4,0
COSMO-SKYMED 2,2007-059A,2026-06-07T08:55:40.235808,14.82163879,.0001437,97.8885,342.1125,87.8499,272.2879,0,U,32376,999,55,.68378E-4,.492E-5,0
RADARSAT-2,2007-061A,2026-06-07T12:31:21.416160,14.29983034,.0001315,98.5781,165.5927,81.4636,278.6696,0,U,32382,999,96457,.42155E-4,.65E-6,0
CARTOSAT-2A,2008-021A,2026-06-07T12:12:33.181632,14.79226437,.0012628,97.7634,207.5475,137.1966,223.0232,0,U,32783,999,97737,.17528E-3,.1253E-4,0
HUANJING 1A (HJ-1A),2008-041A,2026-06-07T12:34:42.419712,14.83966491,.0019105,97.6685,144.7369,165.2944,194.8830,0,U,33320,999,95697,.23209E-3,.1885E-4,0
HUANJING 1B (HJ-1B),2008-041B,2026-06-07T13:21:01.595808,14.83301898,.0035111,97.6522,147.9687,213.2337,146.6672,0,U,33321,999,95698,.13356E-3,.1052E-4,0
GEOEYE 1,2008-042A,2026-06-07T10:50:04.663968,14.64717074,.0005583,98.1236,232.5059,92.7312,267.4530,0,U,33331,999,94872,.1157E-3,.569E-5,0
THEOS,2008-049A,2026-06-07T10:58:32.714112,14.20130946,.000131,98.5570,216.0568,79.1765,280.9559,0,U,33396,999,91658,-.93068E-4,-.241E-5,0
COSMO-SKYMED 3,2008-054A,2026-06-07T12:21:25.295904,15.06892273,.0014254,97.8294,16.9249,303.3463,56.6399,0,U,33412,999,95548,.23443E-3,.3441E-4,0
YAOGAN-4,2008-061A,2026-06-07T05:59:58.664256,14.83182186,.0015712,97.9306,91.8339,101.7382,258.5595,0,U,33446,999,94419,.15901E-3,.1246E-4,0
GOSAT (IBUKI),2009-002A,2026-06-07T06:02:48.194016,14.67539386,.0001552,98.0880,269.4580,91.2421,268.8961,0,U,33492,999,93000,.1898E-4,.6E-6,0
DEIMOS-1,2009-041A,2026-06-07T11:41:23.644608,14.75228464,.000101,97.7400,316.1362,138.2985,221.8302,0,U,35681,999,90545,.12782E-3,.817E-5,0
DUBAISAT-1,2009-041B,2026-06-07T06:04:52.535712,14.75108891,.0011731,98.0040,291.6210,101.8382,258.4143,0,U,35682,999,90363,.15603E-3,.1002E-4,0
