SCD 1                   
1 22490U 93009B   26158.03921617  .00000403  00000+0  59464-4 0  9997
2 22490  24.9696 270.2363 0042073  30.8724 129.6728 14.46115416759647
TECHSAT 1B (GO-32)      
1 25397U 98043D   26157.59817634  .00000069  00000+0  49896-4 0  9998
2 25397  99.0065 150.0898 0000464 193.9791 166.1374 14.24426350449827
SCD 2                   
1 25504U 98060A   26158.21676594  .00000424  00000+0  67622-4 0  9997
2 25504  24.9937 133.6452 0016796  18.7128   4.5179 14.45521991458882
DLR-TUBSAT              
1 25757U 99029B   26158.23545086  .00000127  00000+0  42973-4 0  9998
2 25757  98.6693 153.4120 0014666  24.9874 335.2027 14.52424341431800
TERRA                   
1 25994U 99068A   26158.42036111  .00000461  00000+0  10279-3 0  9993
2 25994  97.9460 208.3535 0000899 238.3915 132.2520 14.61095687408182
MAROC-TUBSAT            
1 27004U 01056D   26158.24203480 -.00000026  00000+0  23436-4 0  9990
2 27004  99.8080 334.9145 0020024 166.2655  14.3493 13.70261967224821
AQUA                    
1 27424U 02022A   26158.48211218  .00000956  00000+0  19988-3 0  9991
2 27424  98.4272 127.5715 0001487  54.6851  51.3936 14.62144003281856
SHIYAN-1 (SY-1)         
1 28220U 04012A   26158.46195611  .00013631  00000+0  42290-3 0  9999
2 28220  97.8686 235.9005 0006414  63.9655 296.2246 15.33512396209609
AURA                    
1 28376U 04026A   26158.46853713  .00000969  00000+0  20589-3 0  9997
2 28376  98.3413 114.8418 0001342  71.1305 289.0041 14.61315056164793
IRS-P5 (CARTOSAT-1)     
1 28649U 05017A   26158.34748182  .00001717  00000+0  17891-3 0  9995
2 28649  97.5311 181.8585 0002643  92.1036 268.0485 14.91024329142352
SINAH 1                 
1 28893U 05043D   26158.41830970  .00000389  00000+0  83354-4 0  9992
2 28893  98.2848 292.6836 0013369 310.2187  49.7845 14.64151400 99091
RESURS-DK 1             
1 29228U 06021A   26158.31804964  .00002792  00000+0  16303-3 0  9994
2 29228  69.9339   5.0995 0006372 299.9640  60.0893 15.13173709101082
ARIRANG-2 (KOMPSAT-2)   
1 29268U 06031A   26158.52798900  .00000564  00000+0  11439-3 0  9994
2 29268  97.8308 343.4419 0015825 102.2589 342.0029 14.64654908 60069
LAPAN-TUBSAT            
1 29709U 07001A   26158.55764111  .00000834  00000+0  10210-3 0  9998
2 29709  98.1345 157.5648 0011141 212.1487 147.9049 14.85941550 49726
HAIYANG-1B              
1 31113U 07010A   26158.21613118  .00000116  00000+0  59782-4 0  9994
2 31113  98.3490 140.4482 0012464 227.6242 132.3887 14.31024451999205
COSMO-SKYMED 1          
1 31598U 07023A   26158.51031377  .00002539  00000+0  22554-3 0  9996
2 31598  97.8859 350.2858 0001229  80.2846 279.8514 14.97057993 28344
TERRASAR-X              
1 31698U 07026A   26157.45519486  .00000822  00000+0  42342-4 0  9995
2 31698  97.4446 165.3145 0001807  76.8069 283.3367 15.19152015 51592
WORLDVIEW-1 (WV-1)      
1 32060U 07041A   26158.44462126  .00006077  00000+0  25260-3 0  9991
2 32060  97.3861 278.3301 0003119  47.5764 312.5737 15.24158646 41395
YAOGAN-3                
1 32289U 07055A   26158.52903524  .00002245  00000+0  23426-3 0  9995
2 32289  97.8159 188.5028 0001936  86.3129 273.8310 14.90746228  4433
COSMO-SKYMED 2          
1 32376U 07059A   26158.37199347  .00000492  00000+0  68378-4 0  9997
2 32376  97.8885 342.1125 0001437  87.8499 272.2879 14.82163879   552
RADARSAT-2              
1 32382U 07061A   26158.52177565  .00000065  00000+0  42155-4 0  9993
2 32382  98.5781 165.5927 0001315  81.4636 278.6696 14.29983034964579
CARTOSAT-2A             
1 32783U 08021A   26158.50871738  .00001253  00000+0  17528-3 0  9991
2 32783  97.7634 207.5475 0012628 137.1966 223.0232 14.79226437977375
HUANJING 1A (HJ-1A)     
1 33320U 08041A   26158.52410208  .00001885  00000+0  23209-3 0  9998
2 33320  97.6685 144.7369 0019105 165.2944 194.8830 14.83966491956975
HUANJING 1B (HJ-1B)     
1 33321U 08041B   26158.55626847  .00001052  00000+0  13356-3 0  9998
2 33321  97.6522 147.9687 0035111 213.2337 146.6672 14.83301898956983
GEOEYE 1                
1 33331U 08042A   26158.45144287  .00000569  00000+0  11570-3 0  9990
2 33331  98.1236 232.5059 0005583  92.7312 267.4530 14.64717074948723
THEOS                   
1 33396U 08049A   26158.45732308 -.00000241  00000+0 -93068-4 0  9997
2 33396  98.5570 216.0568 0001310  79.1765 280.9559 14.20130946916585
COSMO-SKYMED 3          
1 33412U 08054A   26158.51487611  .00003441  00000+0  23443-3 0  9995
2 33412  97.8294  16.9249 0014254 303.3463  56.6399 15.06892273955485
YAOGAN-4                
1 33446U 08061A   26158.24998454  .00001246  00000+0  15901-3 0  9993
2 33446  97.9306  91.8339 0015712 101.7382 258.5595 14.83182186944195
GOSAT (IBUKI)           
1 33492U 09002A   26158.25194669  .00000060  00000+0  18980-4 0  9991
2 33492  98.0880 269.4580 0001552  91.2421 268.8961 14.67539386930006
DEIMOS-1                
1 35681U 09041A   26158.48707922  .00000817  00000+0  12782-3 0  9996
2 35681  97.7400 316.1362 0001010 138.2985 221.8302 14.75228464905456
DUBAISAT-1              
1 35682U 09041B   26158.25338583  .00001002  00000+0  15603-3 0  9997
2 35682  98.0040 291.6210 0011731 101.8382 258.4143 14.75108891903636
